{
  "type": "FeatureCollection",
  "features": [
    {
      "type": "Feature",
      "properties": {
        "norad_id": 31514,
        "name": "FENGYUN 1C DEB",
        "group": "fengyun-1c-debris",
        "lat": -47.78719608344049,
        "lon": -99.63200491726948,
        "alt_km": 863.6073776370149,
        "timestamp": "2025-12-15T04:01:20.734531+00:00",
        "meta_object_name": "FENGYUN 1C DEB",
        "meta_object_id": "1999-025BXD",
        "meta_epoch": "2025-12-13T16:45:52.795008",
        "meta_mean_motion": 14.2099353,
        "meta_eccentricity": 0.00528493,
        "meta_inclination": 99.2469,
        "meta_ra_of_asc_node": 248.4859,
        "meta_arg_of_pericenter": 112.1941,
        "meta_mean_anomaly": 248.4854,
        "meta_ephemeris_type": 0,
        "meta_classification_type": "U",
        "meta_norad_cat_id": 31514,
        "meta_element_set_no": 999,
        "meta_rev_at_epoch": 69338,
        "meta_bstar": 0.001825486,
        "meta_mean_motion_dot": 3.967e-05,
        "meta_mean_motion_ddot": 0,
        "tle_line1": "1 31514U 99025BXD 25347.69852772  .00003967  00000+0  18255-2 0  9993",
        "tle_line2": "2 31514  99.2469 248.4859 0052849 112.1941 248.4854 14.20993530693382"
      },
      "geometry": {
        "type": "Point",
        "coordinates": [
          -99.63200491726948,
          -47.78719608344049
        ]
      }
    },
    {
      "type": "Feature",
      "properties": {
        "norad_id": 31516,
        "name": "FENGYUN 1C DEB",
        "group": "fengyun-1c-debris",
        "lat": -38.42850532253496,
        "lon": 112.1712049569725,
        "alt_km": 811.1157257490822,
        "timestamp": "2025-12-15T04:01:20.734543+00:00",
        "meta_object_name": "FENGYUN 1C DEB",
        "meta_object_id": "1999-025BXF",
        "meta_epoch": "2025-12-12T19:39:02.822688",
        "meta_mean_motion": 14.25410886,
        "meta_eccentricity": 0.01484035,
        "meta_inclination": 98.8324,
        "meta_ra_of_asc_node": 102.7194,
        "meta_arg_of_pericenter": 238.3349,
        "meta_mean_anomaly": 274.9383,
        "meta_ephemeris_type": 0,
        "meta_classification_type": "U",
        "meta_norad_cat_id": 31516,
        "meta_element_set_no": 999,
        "meta_rev_at_epoch": 96493,
        "meta_bstar": 0.00073351179,
        "meta_mean_motion_dot": 1.895e-05,
        "meta_mean_motion_ddot": 0,
        "tle_line1": "1 31516U 99025BXF 25346.81878267  .00001895  00000+0  73351-3 0  9992",
        "tle_line2": "2 31516  98.8324 102.7194 0148403 238.3349 274.9383 14.25410886964934"
      },
      "geometry": {
        "type": "Point",
        "coordinates": [
          112.1712049569725,
          -38.42850532253496
        ]
      }
    },
    {
      "type": "Feature",
      "properties": {
        "norad_id": 31519,
        "name": "FENGYUN 1C DEB",
        "group": "fengyun-1c-debris",
        "lat": 59.982560738445606,
        "lon": -29.480638355803553,
        "alt_km": 845.004308619772,
        "timestamp": "2025-12-15T04:01:20.734554+00:00",
        "meta_object_name": "FENGYUN 1C DEB",
        "meta_object_id": "1999-025BXJ",
        "meta_epoch": "2025-12-11T05:15:28.850688",
        "meta_mean_motion": 14.23393679,
        "meta_eccentricity": 0.00516578,
        "meta_inclination": 98.5728,
        "meta_ra_of_asc_node": 341.8077,
        "meta_arg_of_pericenter": 247.2921,
        "meta_mean_anomaly": 112.2792,
        "meta_ephemeris_type": 0,
        "meta_classification_type": "U",
        "meta_norad_cat_id": 31519,
        "meta_element_set_no": 999,
        "meta_rev_at_epoch": 64743,
        "meta_bstar": 0.00064828681,
        "meta_mean_motion_dot": 1.448e-05,
        "meta_mean_motion_ddot": 0,
        "tle_line1": "1 31519U 99025BXJ 25345.21908392  .00001448  00000+0  64829-3 0  9995",
        "tle_line2": "2 31519  98.5728 341.8077 0051657 247.2921 112.2792 14.23393679647436"
      },
      "geometry": {
        "type": "Point",
        "coordinates": [
          -29.480638355803553,
          59.982560738445606
        ]
      }
    },
    {
      "type": "Feature",
      "properties": {
        "norad_id": 31522,
        "name": "FENGYUN 1C DEB",
        "group": "fengyun-1c-debris",
        "lat": -32.002906693400774,
        "lon": 12.772910017135187,
        "alt_km": 907.9011767744032,
        "timestamp": "2025-12-15T04:01:20.734564+00:00",
        "meta_object_name": "FENGYUN 1C DEB",
        "meta_object_id": "1999-025BXM",
        "meta_epoch": "2025-12-14T07:39:12.282624",
        "meta_mean_motion": 14.0400257,
        "meta_eccentricity": 0.0043154,
        "meta_inclination": 98.7087,
        "meta_ra_of_asc_node": 6.463,
        "meta_arg_of_pericenter": 195.4532,
        "meta_mean_anomaly": 164.532,
        "meta_ephemeris_type": 0,
        "meta_classification_type": "U",
        "meta_norad_cat_id": 31522,
        "meta_element_set_no": 999,
        "meta_rev_at_epoch": 95018,
        "meta_bstar": 0.0005793864,
        "meta_mean_motion_dot": 8.82e-06,
        "meta_mean_motion_ddot": 0,
        "tle_line1": "1 31522U 99025BXM 25348.31889216  .00000882  00000+0  57939-3 0  9991",
        "tle_line2": "2 31522  98.7087   6.4630 0043154 195.4532 164.5320 14.04002570950186"
      },
      "geometry": {
        "type": "Point",
        "coordinates": [
          12.772910017135187,
          -32.002906693400774
        ]
      }
    },
    {
      "type": "Feature",
      "properties": {
        "norad_id": 31523,
        "name": "FENGYUN 1C DEB",
        "group": "fengyun-1c-debris",
        "lat": -75.4918500675361,
        "lon": -179.89736867566742,
        "alt_km": 879.3299913024039,
        "timestamp": "2025-12-15T04:01:20.734574+00:00",
        "meta_object_name": "FENGYUN 1C DEB",
        "meta_object_id": "1999-025BXN",
        "meta_epoch": "2025-12-13T22:31:13.253376",
        "meta_mean_motion": 14.13860124,
        "meta_eccentricity": 0.00394373,
        "meta_inclination": 98.7572,
        "meta_ra_of_asc_node": 35.459,
        "meta_arg_of_pericenter": 106.7053,
        "meta_mean_anomaly": 18.1982,
        "meta_ephemeris_type": 0,
        "meta_classification_type": "U",
        "meta_norad_cat_id": 31523,
        "meta_element_set_no": 999,
        "meta_rev_at_epoch": 96024,
        "meta_bstar": 3.0553174e-05,
        "meta_mean_motion_dot": 1.5e-07,
        "meta_mean_motion_ddot": 0,
        "tle_line1": "1 31523U 99025BXN 25347.93834784  .00000015  00000+0  30553-4 0  9991",
        "tle_line2": "2 31523  98.7572  35.4590 0039437 106.7053  18.1982 14.13860124960248"
      },
      "geometry": {
        "type": "Point",
        "coordinates": [
          -179.89736867566742,
          -75.4918500675361
        ]
      }
    },
    {
      "type": "Feature",
      "properties": {
        "norad_id": 31527,
        "name": "FENGYUN 1C DEB",
        "group": "fengyun-1c-debris",
        "lat": -75.36628401124942,
        "lon": -62.4492656990652,
        "alt_km": 899.4868616452868,
        "timestamp": "2025-12-15T04:01:20.734585+00:00",
        "meta_object_name": "FENGYUN 1C DEB",
        "meta_object_id": "1999-025BXS",
        "meta_epoch": "2025-12-13T21:39:09.060480",
        "meta_mean_motion": 13.23403725,
        "meta_eccentricity": 0.04500793,
        "meta_inclination": 98.8924,
        "meta_ra_of_asc_node": 153.3063,
        "meta_arg_of_pericenter": 297.5489,
        "meta_mean_anomaly": 58.059,
        "meta_ephemeris_type": 0,
        "meta_classification_type": "U",
        "meta_norad_cat_id": 31527,
        "meta_element_set_no": 999,
        "meta_rev_at_epoch": 90205,
        "meta_bstar": 0.00080308436,
        "meta_mean_motion_dot": 5.44e-06,
        "meta_mean_motion_ddot": 0,
        "tle_line1": "1 31527U 99025BXS 25347.90218820  .00000544  00000+0  80308-3 0  9998",
        "tle_line2": "2 31527  98.8924 153.3063 0450079 297.5489  58.0590 13.23403725902053"
      },
      "geometry": {
        "type": "Point",
        "coordinates": [
          -62.4492656990652,
          -75.36628401124942
        ]
      }
    },
    {
      "type": "Feature",
      "properties": {
        "norad_id": 31531,
        "name": "FENGYUN 1C DEB",
        "group": "fengyun-1c-debris",
        "lat": 67.41448028572925,
        "lon": 13.112840279547216,
        "alt_km": 936.4341090492971,
        "timestamp": "2025-12-15T04:01:20.734595+00:00",
        "meta_object_name": "FENGYUN 1C DEB",
        "meta_object_id": "1999-025BXW",
        "meta_epoch": "2025-12-11T09:22:04.454976",
        "meta_mean_motion": 14.35633544,
        "meta_eccentricity": 0.02440694,
        "meta_inclination": 98.3823,
        "meta_ra_of_asc_node": 30.1986,
        "meta_arg_of_pericenter": 272.6672,
        "meta_mean_anomaly": 84.6601,
        "meta_ephemeris_type": 0,
        "meta_classification_type": "U",
        "meta_norad_cat_id": 31531,
        "meta_element_set_no": 999,
        "meta_rev_at_epoch": 63915,
        "meta_bstar": 0.0015995556,
        "meta_mean_motion_dot": 6.429e-05,
        "meta_mean_motion_ddot": 0,
        "tle_line1": "1 31531U 99025BXW 25345.39032934  .00006429  00000+0  15996-2 0  9992",
        "tle_line2": "2 31531  98.3823  30.1986 0244069 272.6672  84.6601 14.35633544639159"
      },
      "geometry": {
        "type": "Point",
        "coordinates": [
          13.112840279547216,
          67.41448028572925
        ]
      }
    }
  ]
}